{"type":"FeatureCollection","crs":{"type":"name","properties":{"name":"EPSG:4326"}},"features":[{"type":"Feature","id":1,"geometry":{"type":"Point","coordinates":[91.846637270261397,22.329527129698945]},"properties":{"latitude":22.329527129999999,"longitude":91.846637270000002,"video":"https://drive.google.com/file/d/19yI93DmCMsJz5qDyfjInH5QJSg1ut0F3/view?usp=drive_link","name":"6","objectid":1,"sl_no":null,"number_of_vent__1_50m_1_80m_":2,"number_of_pumps":6,"pump_capacity_in_cumec":null,"when_to_start_pumps":"32.65","length__m_":null,"remarks___current_status":null,"photo_1":"https://drive.google.com/file/d/1NhRZjtHdloPQgbI38i03dFvG0qaAD3zR/view?usp=drive_link","photo_2":"https://drive.google.com/file/d/1zIgXZUSlOl3-HnwJn7hKtj5V5LLhyQ13/view?usp=drive_link","photo_3":null}},{"type":"Feature","id":2,"geometry":{"type":"Point","coordinates":[91.849321040173308,22.330227740371331]},"properties":{"latitude":22.330227740000002,"longitude":91.849321039999992,"video":null,"name":"6","objectid":2,"sl_no":null,"number_of_vent__1_50m_1_80m_":2,"number_of_pumps":6,"pump_capacity_in_cumec":null,"when_to_start_pumps":"32.65","length__m_":null,"remarks___current_status":null,"photo_1":"https://drive.google.com/file/d/1Y2sgYd5-_S32copv_aeV_zDLKpkCOLJ0/view?usp=drive_link","photo_2":"https://drive.google.com/file/d/1WMbbXhry9wHds5T3LieG6ZMcVJZN0STC/view?usp=drive_link","photo_3":null}},{"type":"Feature","id":3,"geometry":{"type":"Point","coordinates":[91.867159409589561,22.349067850212478]},"properties":{"latitude":22.349067850000001,"longitude":91.867159409999999,"video":null,"name":"4","objectid":3,"sl_no":null,"number_of_vent__1_50m_1_80m_":1,"number_of_pumps":6,"pump_capacity_in_cumec":null,"when_to_start_pumps":null,"length__m_":null,"remarks___current_status":null,"photo_1":"https://drive.google.com/file/d/1BWvw6ZzPEwwzo4ss337nVkQJxJ6ORUER/view?usp=drive_link","photo_2":null,"photo_3":null}},{"type":"Feature","id":4,"geometry":{"type":"Point","coordinates":[91.865294269904496,22.341505719947527]},"properties":{"latitude":22.341505720000001,"longitude":91.865294270000007,"video":null,"name":"3","objectid":4,"sl_no":null,"number_of_vent__1_50m_1_80m_":1,"number_of_pumps":6,"pump_capacity_in_cumec":null,"when_to_start_pumps":null,"length__m_":null,"remarks___current_status":null,"photo_1":"https://drive.google.com/file/d/16pPLHJIEOe8fLe6QNg56Ld9vsUzn8SYb/view?usp=drive_link","photo_2":"https://drive.google.com/file/d/1Tvajlka7_bB9oj10ZF6oTxk-kkXhxEkv/view?usp=drive_link","photo_3":null}},{"type":"Feature","id":1,"geometry":{"type":"LineString","coordinates":[[91.778985899900889,22.296802099898741],[91.773520200267654,22.296512300363709],[91.772452099801555,22.296774799974237],[91.772360099740055,22.296685600180563],[91.771995999978984,22.296700500201311],[91.771835100033513,22.296750099879581],[91.771754600204289,22.297067699976058],[91.771454199979999,22.297142199860136]]},"properties":{"objectid":1,"name":"Chagalnaiya Khal"}},{"type":"Feature","id":3,"geometry":{"type":"LineString","coordinates":[[91.782866052396386,22.273000345563645],[91.782537267205754,22.273046645115503],[91.781565205626691,22.273059873437308],[91.779871244410614,22.273026802214776],[91.778456036715355,22.272993730984457],[91.778398857150918,22.273152472486281],[91.778327381797027,22.27325829977697],[91.778198725980317,22.273297985509902],[91.777676957513847,22.273238457737559],[91.77748397513632,22.273245071473916],[91.777319582540997,22.273112787543333],[91.777233812296004,22.272993730984457],[91.776347520063624,22.273020188468141],[91.77571853946462,22.27303341679244],[91.775389753375691,22.273099558395231],[91.774929660541673,22.273474450553735],[91.774633010783745,22.274168811019567],[91.7742491112555,22.275218419037504],[91.774039711267818,22.27600965654247],[91.773062512223646,22.275896623362261]]},"properties":{"objectid":3,"name":"Saikat Khal"}},{"type":"Feature","id":4,"geometry":{"type":"LineString","coordinates":[[91.807467710025989,22.232704586665431],[91.807361118629331,22.232790920222385],[91.807767498497583,22.233210254004415],[91.808830081511175,22.234002666889179],[91.809599538857668,22.234539162270679],[91.810082531544907,22.234936907148256],[91.811564819137359,22.235858808207734],[91.813554299132477,22.237115037916773],[91.814362899669177,22.237599500210528],[91.813237699588683,22.239667600339082]]},"properties":{"objectid":4,"name":"Patenga Nizam Market Khal"}},{"type":"Feature","id":5,"geometry":{"type":"LineString","coordinates":[[91.791954735723905,22.304520671535606],[91.791647060044141,22.304411419661569],[91.791577204352677,22.30432417035912],[91.791475913914539,22.304295087523226],[91.791347627305441,22.304229422774256],[91.791184691777502,22.304243958797617],[91.791102399809262,22.304265699665855],[91.790856300049001,22.304433399861583],[91.79074809976963,22.304452099692536],[91.790588119699009,22.304424180428477],[91.790425500378063,22.304369799640082],[91.790259199761095,22.304264399818194],[91.790155899791628,22.304201100379725],[91.790099599677831,22.304114200010218],[91.790032500017674,22.304079499686928],[91.789939999594566,22.3039677998594],[91.789903800183552,22.303898300229672],[91.789850099794194,22.303859899764102],[91.789795200153918,22.303852399853724],[91.789697299957609,22.303929299680131],[91.789624799625997,22.304106799846185],[91.789551100043425,22.30420360034368],[91.789508200098751,22.304248199925244],[91.789384800324783,22.304280499976695],[91.789315000328898,22.304276799899121],[91.789088134397147,22.304172556074409],[91.788957600203219,22.304098699890837],[91.78885970000691,22.304064599622073],[91.788779899965277,22.304064000394771],[91.788708200032559,22.304158300126087],[91.788669300285818,22.304366100395999],[91.788727900086741,22.304539699640564],[91.788742800442364,22.304674800357777],[91.788794200246286,22.30477489993503],[91.788853700159137,22.30479990030069],[91.788857700357113,22.304861199838495],[91.788828000257169,22.304962599954482],[91.788706300095726,22.305030100258872]]},"properties":{"objectid":5,"name":"Kumar Khal"}},{"type":"Feature","id":6,"geometry":{"type":"LineString","coordinates":[[91.7798951000713,22.339656400019685],[91.779651999785713,22.339467899977819],[91.779334299805697,22.339374100206722],[91.778664000296914,22.338570900212179],[91.777882734595991,22.337794403372769],[91.777156761997446,22.337072858561104],[91.776179254831135,22.336128212859936],[91.775544052500479,22.335521365286102],[91.775124153885542,22.335124842084387],[91.774746129339249,22.334802279046666],[91.77447989294356,22.334619101158108],[91.774294906470359,22.334491825990593],[91.773839264788592,22.334222028641491],[91.77342119334692,22.333989925809249],[91.773043087053949,22.333802562296388],[91.772777400427202,22.33369330010407],[91.772540500313724,22.333684900238136],[91.771981953022873,22.333807119940701],[91.771776899982896,22.333848200221446],[91.771254899751057,22.333839300145879],[91.770846099821469,22.333740999600121],[91.770227739105721,22.333671215659798],[91.770036200320874,22.33364959985639],[91.769328471607409,22.33349585700477],[91.768982499848789,22.333420700141655],[91.7682800002286,22.333199099792434],[91.767657400363078,22.333546199757699],[91.76695126256601,22.333613503434805],[91.766883100198854,22.333619999644718],[91.766777799681265,22.333605400206107],[91.766627599569134,22.333383699607623],[91.766325799769646,22.333131500103253],[91.766171700070856,22.333162000318623],[91.765621621198221,22.333053582683569],[91.765223399829381,22.332999999942892],[91.764909560808448,22.333030999577989],[91.764659542596888,22.333085067571666],[91.764397300110957,22.333027300262525],[91.76413270942885,22.332814001987725],[91.76394894556276,22.332655521051137],[91.763788500164807,22.332558399600448],[91.763654299946197,22.33251869995615],[91.763519605654167,22.332520493947904],[91.763374868197303,22.332542374164063],[91.763327100282055,22.332553399857265],[91.763112499947212,22.332540999795409],[91.762999899719603,22.332491400367918],[91.76293009972369,22.332406999619579],[91.762852399943213,22.3321143000577],[91.762779899611573,22.33201250004111],[91.762704864234223,22.331971610335813],[91.762479500285622,22.331895900076145],[91.762356200224644,22.331863700310965],[91.76216411616241,22.331765908570524],[91.762082600338587,22.331722299953405],[91.761748600427737,22.331622999954558]]},"properties":{"objectid":6,"name":"Mahesh Diversion Khal"}},{"type":"Feature","id":7,"geometry":{"type":"LineString","coordinates":[[91.819692363501332,22.36793695357602],[91.819562574909099,22.367704528082253],[91.819401885169412,22.367474007890621],[91.819185571747312,22.367310165797054],[91.819000159472651,22.36722634023058],[91.818726162531206,22.36722634023058],[91.818351218308052,22.367230150786785],[91.818114303821503,22.367218719948589],[91.817988635801484,22.367224435367795],[91.817873267864485,22.367197763132587],[91.817764081234941,22.367247297042294],[91.81771669869697,22.367409232688125],[91.817648714196281,22.367453051113028],[91.817246988499519,22.367430189472309],[91.817158402934425,22.36733302745743],[91.817115140070328,22.367224435367795],[91.817008013277771,22.367193952575494],[91.816762857646836,22.367178712007565],[91.816653671017335,22.367228245093315],[91.816606287581024,22.367359699666761],[91.816567145289142,22.367468292481643],[91.816377613340592,22.367474007890621],[91.816306100257464,22.367547600405867],[91.816365099808692,22.36771630030918],[91.815772400367393,22.36796309982067],[91.815513610107089,22.367804769339386],[91.81495029994862,22.367994099986209],[91.814669800102848,22.367846299820929],[91.81461630003777,22.367860200355221],[91.814111799886007,22.367760700145862],[91.814015300163234,22.367801600119464],[91.813967000445359,22.36794550007734],[91.813778400049785,22.368138199949616],[91.813666600221097,22.36826300040099],[91.813543200447128,22.368322500115521],[91.813382299603333,22.368243099591673],[91.813226699718015,22.368193500409046],[91.813130199995243,22.368024899940167],[91.813173099939959,22.36777679962098],[91.813087300050569,22.367707399904269],[91.812438199884141,22.367662700158199],[91.812304100276833,22.367593300384605],[91.812212899715931,22.366358486039577],[91.812175299831395,22.366085199812645]]},"properties":{"objectid":7,"name":"Muzaffar Nagar Khal"}},{"type":"Feature","id":8,"geometry":{"type":"LineString","coordinates":[[91.82290660026662,22.431522899955393],[91.823161028307936,22.431563341920697],[91.823293203723892,22.431603711634232],[91.823442500130838,22.431724399719887],[91.82368220029305,22.431865799785868],[91.823826091536944,22.431888072082909],[91.823877600037022,22.431900900054188],[91.824321400126721,22.432140800086561],[91.824438700339869,22.432249200319237],[91.8244476996624,22.432353500246439],[91.824519899956741,22.432507700185443],[91.824790500368081,22.432495200254397],[91.825041607337766,22.432497985213228],[91.825214499792295,22.432511900042471],[91.825318300123371,22.432536899900448],[91.825358900380948,22.432641199611421],[91.825371713051851,22.432759930518671],[91.825376899924294,22.4328079996057],[91.825426600115719,22.432866300093032],[91.825543799717593,22.432882999836448],[91.825679200085403,22.432928900040707],[91.825760399702261,22.433041500329182],[91.825728699952492,22.433678100260909],[91.825750200230516,22.433903699750342],[91.825810469999553,22.434030795986502],[91.82582530028661,22.434109499658135],[91.825795799612649,22.434315199621285],[91.825920622317994,22.434757857089576],[91.82592450034511,22.435140799597779],[91.826047900119065,22.435262299984725],[91.826241000175912,22.435329199922716],[91.826364399949853,22.435554800049299],[91.826691599613966,22.435820099888605],[91.8269384000602,22.43595150040332],[91.82716780013935,22.43604770028421],[91.827478999909971,22.436031000091305],[91.827560200425125,22.436064399644788],[91.827618899939068,22.436118600315126],[91.82763690038071,22.436264500373706],[91.827718099997583,22.436360400293328],[91.827822261451388,22.436376412944682],[91.828088000180429,22.436385400288362],[91.828503000282126,22.436431300164479],[91.828952662777382,22.436485355386271],[91.829606980358946,22.43656024734927],[91.830711699749287,22.436678499963548],[91.830740400024283,22.437120699863975],[91.8309726998652,22.437151199706758],[91.831090699865968,22.436962800194966],[91.831283899635821,22.437012399752767],[91.831830999694986,22.437032200214119],[91.832388900198822,22.436794200092407],[91.832700099969429,22.436744599626316],[91.832925400137626,22.436605800095897],[91.833472500196805,22.43634800034728],[91.833762199689403,22.436328100150323],[91.834159200247768,22.43584219967488],[91.834609799685865,22.435762899985846],[91.834835099854075,22.435871999839463],[91.835618299627768,22.435852100404578],[91.835993799908124,22.43584219967488],[91.836283500299032,22.435931499680898],[91.836508799568904,22.435862000303224],[91.836658999681063,22.435901700359391],[91.836734099737143,22.436040499763731],[91.837066031726195,22.435995012426702],[91.837463699732794,22.435911600254499],[91.837616932557324,22.43598270876495],[91.837838599938522,22.435971100078927],[91.838149799709129,22.435871999839463],[91.838482400044768,22.435792599698793],[91.83876129999102,22.435852100404578],[91.839115399706344,22.435891799633243],[91.839448000041983,22.435980999969086],[91.839986679293688,22.43605536661282],[91.840338499983133,22.436080199768845],[91.84094332218919,22.436549562852477],[91.841218200377924,22.436685100133531],[91.841389899869753,22.436794200092407],[91.841625899871303,22.436794200092407],[91.841829800372821,22.43665539978133],[91.84186238945469,22.43637884826245],[91.841911913576297,22.43620563420723],[91.841947800373589,22.436129799642135],[91.842445200241372,22.436202899972141],[91.842387186141991,22.436120064995837],[91.842312599922266,22.435921500148911],[91.842280399810917,22.43575300008013],[91.842605882794544,22.435648174623925],[91.84291340037079,22.435802499601689],[91.843138699640704,22.43584219967488],[91.843406899753617,22.435772799890866],[91.843632199921814,22.435614099919352],[91.843836100423331,22.43556449986173],[91.844018499748501,22.435296799900907],[91.843836100423331,22.435157999752672],[91.843750199922582,22.434800999992259],[91.843535700199055,22.434711700089085],[91.843449799698291,22.434592700165037],[91.843224500428434,22.434602600153539],[91.843106500427638,22.434473700138955],[91.843117200261005,22.434143344730817],[91.843117200261005,22.434057199659247],[91.843192300317085,22.43388860017803],[91.843353299975547,22.433762399739841],[91.843638400093909,22.433796699918972],[91.843858362472702,22.43417898164628],[91.844800193047476,22.434728803148957],[91.84547214276148,22.435064803367911],[91.846463544170291,22.435375349244939],[91.846805026149127,22.435375349244939],[91.84736681995139,22.435136075886071],[91.847504514616489,22.435034258229017],[91.847766245062701,22.435244614103762],[91.847752145105986,22.435417297952505],[91.847692220290014,22.435638853443574],[91.847840268937048,22.435873442104167],[91.848125793060234,22.435879958450212],[91.848439516198454,22.435687726113915],[91.848777914260921,22.435394490664027],[91.849172712150235,22.435228323163557],[91.849750809476575,22.435159902024083],[91.850233731196909,22.435339101519308],[91.850540405255117,22.435704017000205],[91.85097045213783,22.435971186432081],[91.851414599875568,22.436098255034807],[91.851978597245221,22.436228581685945],[91.852718843175325,22.436225323521164],[91.85331809043673,22.436117804040297],[91.853763415865771,22.436198154708308],[91.854024923529849,22.43625794252986],[91.854086834520899,22.436290398788799],[91.854305834804023,22.43645353270395],[91.854610772418781,22.43668841142766],[91.854786342751154,22.436791758139403],[91.854978545391035,22.436869481305656],[91.855321368554598,22.436956599418711],[91.855706699099088,22.437060800321976],[91.855965433663869,22.437111191962359],[91.856221396027664,22.437139376898045],[91.856499535999191,22.437155605340521],[91.857820592167826,22.437146971759557],[91.859269139936487,22.437111335606307],[91.860326633994021,22.436861883938047],[91.861731118499691,22.43657170569896],[91.862882244857616,22.436469888264977],[91.863950754955454,22.436464797598909],[91.864485010004387,22.436179709206108],[91.865046803806635,22.435955710119938],[91.865713245949635,22.435904801601435],[91.866379687194296,22.436138982126444],[91.866765232436165,22.436357889416442],[91.867288471444752,22.436159345667789],[91.868230302917866,22.435731711502466],[91.868637878443721,22.435568803416391],[91.869309828157711,22.435507712523457],[91.869640294994539,22.435456803010251],[91.869948730649028,22.435497530290178]]},"properties":{"objectid":8,"name":"Kata Khal"}},{"type":"Feature","id":9,"geometry":{"type":"LineString","coordinates":[[91.861187099661961,22.406412099833428],[91.861167599932074,22.406260000309597],[91.861216199687277,22.406206900018915],[91.861320000018353,22.406149700374407],[91.861344300345095,22.406121099712792],[91.861353700316229,22.405705400333169],[91.861345295678419,22.405364607668552],[91.861342100370976,22.405235000331203],[91.861391596644822,22.405074071266963],[91.861422578640656,22.404998909017664],[91.861434227993229,22.404870671672043],[91.86144360011663,22.404767499692213],[91.861509900276161,22.404669500026841],[91.861609299760659,22.40461639995895],[91.861728626573111,22.404612659358765],[91.86187670935611,22.404623790633888],[91.861925099803841,22.404606199680835],[91.862181239135737,22.404277761453947],[91.862351196794251,22.404099001907891],[91.862503700186764,22.403938599732811],[91.862622900336746,22.403903799685889],[91.862837290465833,22.403894095170244],[91.862892400311893,22.403891600316488],[91.863114867193687,22.4037841920027],[91.863487952802544,22.4036040656291],[91.863622873470007,22.403544551935596],[91.863930960578173,22.403442430401135],[91.864263799865668,22.403291300159268],[91.864436913305767,22.403129633007975],[91.864484600372606,22.403085099948857],[91.864557499556241,22.403052400062229],[91.864676800317525,22.403036100362211],[91.864738599917516,22.403050200026374],[91.864865409696279,22.403123044531267],[91.864974899956366,22.403159099681769],[91.865054399960698,22.403158599711752],[91.865133899965016,22.403144299904433],[91.865414399810803,22.40292590002182],[91.865451899982332,22.402860500165918],[91.865471079013673,22.402788194529073],[91.865499934697198,22.402729313340558],[91.865617499913398,22.402603299689833],[91.865727999879866,22.402552200382345],[91.866790699674439,22.402307000350998],[91.867041535352925,22.402254588712413],[91.867247299858647,22.40223570018653],[91.867345200054928,22.402277714549957],[91.86747889991193,22.402466900284004],[91.867974000092573,22.402444100041471],[91.868222999614602,22.402542999897165],[91.868882900225657,22.402771099993046],[91.869446099891363,22.402716500115591],[91.870223999604903,22.402964499924899],[91.870379499777229,22.40304879977705],[91.870701400279501,22.403019099704927],[91.871098399939527,22.403147999848922],[91.871307599602915,22.403147999848922],[91.871667000276716,22.402909999785386],[91.871806499657183,22.402954600172418],[91.872080100441593,22.402969499631848],[91.87249309999514,22.403281900399602],[91.872718400163336,22.403306700382618],[91.872901237866415,22.403241932727351],[91.873186900330111,22.403260800353632],[91.873523100215081,22.403222399856343],[91.87391870029991,22.403362500120561],[91.873968097759075,22.403462258903875],[91.874005899764541,22.40353859965127],[91.874103799960835,22.40362419973729],[91.874312501957547,22.403709538989929],[91.874370599600212,22.403728300247252],[91.874577200437471,22.403734500015879],[91.874795914158014,22.40366906731996],[91.874970331053561,22.403608631785659],[91.875011700269027,22.403594400126636],[91.875062599711327,22.403589399611644],[91.8751081999918,22.403601799991556],[91.875343692445227,22.403784480190076],[91.875470300103046,22.403859700401469],[91.875706399817588,22.403881999613855],[91.875865707050067,22.403848724370672],[91.876085685598539,22.403851090496033],[91.876150235839901,22.403869357580358],[91.876330939145831,22.403943389285605],[91.876507215554028,22.404005429219481],[91.876581892503609,22.404024404708398],[91.876720003986961,22.404029532275707],[91.876802000409455,22.404028400290926],[91.876824799651388,22.404286200248212],[91.876875451158654,22.404538726009832],[91.876953099735204,22.404717099635665],[91.877353200379602,22.404829300072794],[91.877591899818569,22.404834299712647],[91.877688500152644,22.404839199691779],[91.877685879766986,22.404866813147006],[91.877680499756735,22.404923500067856],[91.877711454803119,22.40507805768377],[91.877728800372935,22.40514669961081],[91.877809300202159,22.405255800266076],[91.877943399809482,22.405374799585985],[91.877954099642807,22.405612900071702],[91.877927300202927,22.405672399591534],[91.877895100091564,22.405801400256564],[91.877923389836496,22.405950299542003],[91.877927300202927,22.405989799695472],[91.877959500314319,22.406103900113553],[91.877867250521163,22.406196011375677],[91.877821104963317,22.406231375586319],[91.877691199590089,22.406307199904994],[91.877279904140636,22.406830037769268],[91.876682744563908,22.407579034151677],[91.875976934651916,22.408379997349616],[91.875555554715078,22.408852837454813],[91.875245099647813,22.409114200354068],[91.874971499761742,22.409585400261019],[91.874861748091902,22.40996660425451],[91.874789058215768,22.410251237393553],[91.874616100184227,22.410734700312652],[91.874204399594561,22.411430200321419],[91.874193999798493,22.41180569978394],[91.874157840811705,22.41227856975387],[91.874107599834502,22.412511100147267],[91.874112899894669,22.412957399757701],[91.874027100005236,22.413225200095397],[91.874032499778423,22.413597200161814],[91.873968099555697,22.413959199779097],[91.873997212157434,22.414299722229359],[91.874096800288129,22.414807199997661],[91.873930499671161,22.415089899911777],[91.873851881812442,22.41532228774588],[91.873844699781756,22.415422100225925],[91.873898400171115,22.415784100070137],[91.873982067460034,22.416028926705177],[91.874111310774907,22.416383452705755],[91.874209500228744,22.416686700166039],[91.87443938090658,22.416794133384091],[91.874767399834255,22.417004100021018],[91.875265667474608,22.416985846289563],[91.875690099886739,22.417162799676511],[91.875802700114363,22.417465299709601],[91.875727600058269,22.41779750015554],[91.875911628029101,22.418060766171305],[91.876172900334538,22.418501700025281],[91.876403499664576,22.418948000318085],[91.876414300109261,22.419111599719386],[91.876532300110014,22.41929019960914],[91.876575200054731,22.419453800268148],[91.87676159957789,22.419653699899118],[91.87683270033429,22.419895199714201],[91.876832599722988,22.420094599631152],[91.87687259990598,22.42026700005653],[91.87709549977572,22.420450600029504],[91.877154599938265,22.420941500297943],[91.877076900157761,22.421169800211015],[91.876871353942661,22.421435895669468],[91.876745840432847,22.421656741890576],[91.876693400379807,22.421809499675135],[91.876732262397312,22.422093616948946],[91.876749699595308,22.422221100170127],[91.876967398219563,22.422811282350295],[91.877100104539878,22.423395294686006],[91.877145300578448,22.423806144788674],[91.877149399591062,22.423956699673468],[91.877254307544902,22.424420586658005],[91.877328999765822,22.42498319986116],[91.877506099929164,22.425174100141501],[91.877793099984345,22.425384799791246],[91.878179300098026,22.425955100054566],[91.878587080439786,22.426168464030503],[91.879096860888794,22.426392391723169],[91.879622100445516,22.42658739959122],[91.879895700331588,22.426691500331096],[91.880104899994976,22.426865099928346],[91.880271199713619,22.427113000162198],[91.880298000051823,22.427544480581659],[91.880249141581814,22.427852803784901],[91.880298989096929,22.428375167787454],[91.880308699885148,22.428734499956526],[91.88018591545719,22.428990287768286]]},"properties":{"objectid":9,"name":"Krishna Khal"}},{"type":"Feature","id":10,"geometry":{"type":"LineString","coordinates":[[91.866587339060416,22.429554575550373],[91.867020845355285,22.429217134603796],[91.867262696084296,22.429073721537915],[91.867344834440615,22.428850166020514],[91.867367650750509,22.428656136176638],[91.867267259525931,22.428449452148879],[91.867121236579877,22.428272293928611],[91.866852006099322,22.428141534658881],[91.86659190250208,22.428023428388258],[91.866423063246103,22.42790110458305],[91.866308982594916,22.427677547177186],[91.866140143338953,22.427470861692374],[91.866149270222223,22.427230431285356],[91.866194901943715,22.426981563877206],[91.866140143338953,22.426770659887751],[91.866021499246102,22.426475392767788],[91.865870912858398,22.426272922976914],[91.865838970563544,22.426057799590414],[91.865957614656395,22.425830020888728],[91.866158396207211,22.425610678481878],[91.866222281695258,22.425399771579453],[91.866071695307539,22.425197300219892],[91.865861786873438,22.42503701125672],[91.865683820734176,22.42489781222833],[91.865515837572673,22.424702194974742],[91.865380367136254,22.424484695907044],[91.865380367136254,22.424300151303463],[91.865442634758509,22.423993369718723],[91.865453849326499,22.423824048028866],[91.865423943512369,22.423652998916229],[91.865392169202465,22.423540694105522],[91.865377216744577,22.42345430496125],[91.865345441536348,22.423303988685308],[91.865308059942436,22.423196866919053],[91.865319274510426,22.423079377578063],[91.865315535722203,22.42297398286323],[91.865308059942436,22.422797749361958],[91.865308059942436,22.422700993895866],[91.865360394892562,22.422531670629994],[91.865388431312567,22.422345069850785],[91.865474409068398,22.422196480438878],[91.865582816858591,22.422070351580597],[91.865672533402645,22.421963228032215],[91.865743559598883,22.421838827031358],[91.865730475636795,22.421691964318416],[91.865691224648756,22.421531279357382],[91.865610853278596,22.421420700074659],[91.865571602290558,22.421317032176649],[91.865554780438558,22.421223731002257],[91.865580947464466,22.421137341246911],[91.865608983884485,22.42099393312122],[91.865625805736499,22.420895448317278],[91.865653842156533,22.420776229776926],[91.865765988734921,22.420641460868957],[91.865827668858955,22.420537792389236],[91.865829537354756,22.420408206680701],[91.865784679082722,22.42030280993848],[91.865777203302912,22.420074738624709],[91.865857573774761,22.419767187043789],[91.865909908724888,22.419544298313468],[91.866126453912344,22.41915678616424],[91.866172085633821,22.418869939100791],[91.866327235463174,22.418713860546923],[91.866464132424269,22.418591529370307],[91.866445879556025,22.418397485190145],[91.866313546036565,22.418195003620315],[91.866286166285008,22.417962994284434],[91.866372868082991,22.417633961488431],[91.866404810377858,22.417271180878057],[91.866445879556025,22.416933709247907],[91.866404810377858,22.416748099958571],[91.866359177758056,22.416596237628227],[91.866418499804453,22.416317822509516],[91.866509764145761,22.41611533790784],[91.866578213075471,22.415891761526584],[91.866549099575408,22.415794100222207],[91.866404300134775,22.415551100143258],[91.866195099573076,22.415481599697323],[91.866168200420233,22.415387400216762],[91.866432809068613,22.415061293616525],[91.866474000417654,22.414807199997661],[91.866350599745402,22.414722899804975],[91.866334500138862,22.414603900186705],[91.866404300134775,22.414400499594009],[91.866302300027499,22.414276600053437],[91.866256409591216,22.414015281744657],[91.866216500138094,22.413904600145436],[91.865985800196711,22.413577300025441],[91.865835600084594,22.413160799971987],[91.865846399630925,22.412977299982877],[91.865755199968348,22.412838400287939],[91.865642500027747,22.412848300166765],[91.865465499577425,22.412907799910123],[91.865347499576671,22.41300699958752],[91.865159699580005,22.413116099884299],[91.865057800084045,22.413071500267371],[91.865036299806036,22.412942600193475],[91.864928999638607,22.412873100103369],[91.864816400309323,22.41281360034511],[91.864698400308527,22.412778899684351],[91.864709100141894,22.412659900061694],[91.864810999637811,22.412615199812826],[91.86490858183052,22.412448575700719],[91.864923699578426,22.412336932010934],[91.864923699578426,22.412297900380519],[91.864864700027198,22.412253200015144],[91.864730899558893,22.4122401999842],[91.864677035676138,22.412247105264626],[91.864505034350387,22.412223599904625],[91.86439808901747,22.412173672593422],[91.864326142946368,22.412068287042274],[91.864269199638827,22.411886199888251],[91.864177999976235,22.411717600058893],[91.864017331796106,22.41155396952627],[91.86390979986335,22.411444900390897],[91.863775700256028,22.411345699598083],[91.863699001198754,22.411240783463004],[91.863731126749954,22.411135487725161],[91.86390927524721,22.411097689831948],[91.864070928879215,22.411125194082764],[91.864242400198961,22.410919199826211],[91.864342361130539,22.41060923289638],[91.864364565687723,22.410504050454449],[91.864360400199757,22.410408400086595],[91.864178308098374,22.410178561889293],[91.864197390111656,22.409962348904262],[91.864286014304326,22.409658642460265],[91.864262650920423,22.409418349802181],[91.864189639447403,22.409302253144489],[91.864081582000168,22.409126758032013],[91.863873700165328,22.408938200072008],[91.863481399592558,22.408955699954294],[91.863336864256596,22.408989062005539],[91.863149954490353,22.409032261083038],[91.863009772390299,22.409053860201524],[91.86291923837932,22.408918863995009],[91.862884192405119,22.408781167762498],[91.862849147329257,22.408697469334513],[91.86273232861312,22.408689369644712],[91.862615509896926,22.408692069541377],[91.862495770757747,22.408638070767815],[91.862411077592782,22.408538173687329],[91.862381872464567,22.408368077415759],[91.862370190772609,22.408211480466452],[91.862367270349623,22.408022484428802],[91.862364349926622,22.407876687570813],[91.862338199968718,22.407795700138887],[91.86210400019101,22.407900700263077],[91.861831100092502,22.407923399952026],[91.861698700097733,22.407769799730666],[91.86157061650789,22.407482773021727],[91.861453186937311,22.407254732979879],[91.861348226881219,22.407054182671658],[91.861272300375077,22.406852299963404],[91.861226100020019,22.40666669962809],[91.861222600183666,22.406495400169899],[91.861187099661961,22.406412099833428],[91.861122865627578,22.406398248828481],[91.861075800194882,22.406388100171885],[91.86096250556956,22.406278622529722],[91.86090386714109,22.406241176276289],[91.860714284886882,22.406180042582108],[91.860624299746561,22.406141299896117],[91.860540079993712,22.406058217768294],[91.860446700119937,22.40596609977084],[91.860349419761206,22.405892235242828],[91.860288000148586,22.405845600245744],[91.860062900304698,22.40575709976293],[91.85994919964088,22.405695499945402],[91.859954399988041,22.405521500162315],[91.859819967105778,22.405471070481152],[91.859706500003938,22.405441600145025],[91.859519399794877,22.405350799745325],[91.859374778220669,22.405153678327977],[91.85929663467239,22.405067330069802],[91.859183100196901,22.404957700235371],[91.859113399914008,22.40497020015367],[91.858921199969089,22.405160700230997],[91.858776299917096,22.405299699786944],[91.858704399660098,22.405432699662118],[91.858754300175818,22.40558169983316],[91.858764499647535,22.405976799909041],[91.858104500221799,22.406269399867817],[91.85773760041198,22.406113600322385],[91.857323000060561,22.406151900361166],[91.856945599843414,22.406229100025612],[91.856567400125641,22.4062068003593],[91.856251638710006,22.406256539630931],[91.856009787981009,22.406290289341449]]},"properties":{"objectid":10,"name":"Kuaish Khal"}},{"type":"Feature","id":11,"geometry":{"type":"LineString","coordinates":[[91.848029799987259,22.415041499986671],[91.848020400016125,22.41567009978052],[91.848036499622651,22.416066799656964],[91.8479613995666,22.416423899911479],[91.848481700185886,22.416939600336832],[91.848422699736361,22.417311499938993],[91.848390499625012,22.417475200089083],[91.848422699736361,22.417618999658476],[91.848497799792398,22.418015699781602],[91.848481700185886,22.418169399951804],[91.848395900296481,22.418283500332329],[91.848428100407844,22.418551300366634],[91.84805209976588,22.418921000020749],[91.847546899826526,22.418752099812973],[91.847290899733494,22.418726100135927],[91.846322499687517,22.418975199911117],[91.845990099676214,22.41916390036646],[91.84592830007621,22.419319900355244],[91.845933600136391,22.420202599876443],[91.845931000411966,22.420634100110494],[91.846040900303819,22.42113989973236],[91.845912199571373,22.421566300028619],[91.845976599794113,22.422096900357499],[91.846148199572937,22.42206720020533],[91.846448599797199,22.421938199697138],[91.846582700302818,22.421908500341406],[91.846652500298717,22.421982900267228],[91.846566599797981,22.422419199662759],[91.846722199683285,22.422647300341918],[91.846700899729612,22.423044299991069],[91.846743799674286,22.423277400280298],[91.847124699727786,22.423277400280298],[91.847441199558617,22.423460899947308],[91.847618200008924,22.423441000393815],[91.847821999899111,22.423540200021606],[91.847714800342985,22.423723700171728],[91.847666499726827,22.423807999883337],[91.847703999898357,22.423897199681058],[91.847800600232418,22.423936899837908],[91.848074200118504,22.423798099955313],[91.848176099614449,22.423807999883337],[91.848245799897342,22.423882399621746],[91.848546200121618,22.424214599663916],[91.848573100172814,22.424347599698464],[91.848563767575328,22.424457180185122],[91.848535131978977,22.42457771089795],[91.84852610031713,22.424660899864435],[91.848612273905701,22.424689201091379],[91.848777943905333,22.424685408717338],[91.848915699655862,22.424665799974566],[91.848943631871308,22.424754633851432],[91.848939199583697,22.42481209986229],[91.848889500290582,22.424871600292981],[91.848803700401177,22.424933600156425],[91.848782299836159,22.425141900362718],[91.848823200131037,22.425224300127265],[91.848959300286495,22.425245999695314],[91.849066599555599,22.425226200043653],[91.849130999778311,22.425255900350511],[91.849145990863775,22.425327983376466],[91.849141699611664,22.425384900267474],[91.849066021938867,22.42549508943538],[91.849055899722231,22.425583200350232],[91.849098799666947,22.425657599967767],[91.849228317866306,22.42567983008114],[91.849340203034956,22.425668512827279],[91.849404499951405,22.425647700171663],[91.849534841007568,22.425655693414264],[91.849600965097309,22.425700070600019],[91.849647750255599,22.425900580701551],[91.849679500311012,22.426019599703217],[91.849694200342327,22.426084100152259],[91.849570799670076,22.426203099897904],[91.849538700170015,22.426267499786093],[91.849585532040706,22.426328898663996],[91.849651300397625,22.426391499899275],[91.849694200342327,22.426485700219303],[91.849672799777295,22.426624600381462],[91.849533971438362,22.426761950096715],[91.849490399553815,22.426812999810871],[91.84948647122107,22.4269104175401],[91.849586078216404,22.427023040979172],[91.849692409101635,22.427127226920661],[91.849732815323108,22.427203891793781],[91.849747701305688,22.427284488430026],[91.849754383873091,22.427385590180666],[91.849720055652853,22.427467305219324]]},"properties":{"objectid":11,"name":"Chandrabill Khal"}},{"type":"Feature","id":12,"geometry":{"type":"LineString","coordinates":[[91.886104700166896,22.396251099944976],[91.885962999913971,22.396377999742803],[91.885796318411337,22.396479638931442],[91.885708965334771,22.396599761199013],[91.885621705683036,22.396853134799418],[91.885496299971066,22.397077399609927],[91.885485600137699,22.397315399693181],[91.885201199806957,22.397429499757141],[91.885050999694798,22.397434499663166],[91.884874000142815,22.397474100241471],[91.884595100196563,22.397498899599597],[91.884344898728685,22.397525352575556],[91.884219599916207,22.397538599825353],[91.884106099576698,22.397572300158739],[91.884077199875691,22.397616500273116],[91.884149799920337,22.398178399791806],[91.883911016039704,22.398275825975016],[91.883647311096468,22.398355544069744],[91.883207504916527,22.398463834462358],[91.882873099865478,22.398535500339189],[91.882567299868057,22.398545400406395],[91.882368800038023,22.39847600025584],[91.882181099754376,22.398466100183651],[91.88196650031783,22.39842150001758],[91.881752556651435,22.398407815155547],[91.8816554002602,22.398401600199556],[91.881413999587153,22.398287500102875],[91.881397899980641,22.398109000288564],[91.880355800352135,22.397779000230759],[91.880263699679318,22.397789900330483],[91.880206999815229,22.397851100005997],[91.880164099870512,22.397965199630313],[91.880126499985991,22.398079200326098]]},"properties":{"objectid":12,"name":"Forest Khal"}},{"type":"Feature","id":13,"geometry":{"type":"LineString","coordinates":[[91.867411999677785,22.385147899790194],[91.867676000166739,22.385577800281293],[91.868726100191154,22.386070100393127],[91.869872699938313,22.386473100243329],[91.870941599905024,22.386682600198888],[91.871154799766316,22.386760799934496],[91.872676200006254,22.386559700097475],[91.874227100021784,22.386382500092658],[91.87492579976832,22.386191599677385],[91.875582900330656,22.38581090029173],[91.87593429971021,22.385674500194423],[91.876304400217379,22.385669499865546],[91.876567300270125,22.386073799961359],[91.877138600044731,22.386433400180927],[91.877873500100563,22.38656480006803],[91.878053199988329,22.386765699719984],[91.878348300152439,22.386763200405788],[91.878549500318172,22.386594600006219],[91.878731299568756,22.386501999815088],[91.878877619857178,22.386410733530013]]},"properties":{"objectid":13,"name":"Baizza Khal"}},{"type":"Feature","id":14,"geometry":{"type":"LineString","coordinates":[[91.871365540938726,22.376471530960867],[91.870125403214274,22.377007210212227],[91.869907199736815,22.377042800312633],[91.869716499978423,22.377511299588264],[91.870224273591077,22.378334750929938],[91.870980551754045,22.379330180109829],[91.871670413874796,22.379871004227077],[91.871924199620651,22.379978400277789],[91.871929600292162,22.380221799786597],[91.872832141251365,22.381116528674948],[91.8732478725817,22.381401405283249],[91.87404636078324,22.382145499156177],[91.874619918922477,22.382600463453848],[91.876528954783922,22.38451114724624],[91.877295159330771,22.38537404489934],[91.877817199986765,22.385885600292632],[91.878340299756516,22.38630150013903],[91.878731299568756,22.386501999815088]]},"properties":{"objectid":14,"name":"Balukhali Khal"}},{"type":"Feature","id":15,"geometry":{"type":"LineString","coordinates":[[91.867360899911176,22.373786199909517],[91.867622700425997,22.37425970008772],[91.868149200319053,22.374431300090787],[91.868483299942909,22.374647000137244],[91.868327700057606,22.374947299998812],[91.867820200431083,22.375091200046416],[91.867614799743066,22.375271600095058],[91.86759860042352,22.3757441997484],[91.868792607861536,22.375732871782812],[91.871639500150934,22.375496200408133],[91.871681400270717,22.375297999981274],[91.871233599983057,22.374692500082375],[91.871016699961075,22.374043599879712],[91.870850899705729,22.373928499588175],[91.870751999684501,22.373120399990555],[91.870579799831077,22.372406599960971],[91.870330999735046,22.372226599919077],[91.86935810002781,22.372279699893333],[91.868876499729282,22.37216760029316],[91.868579799665682,22.37200839986545],[91.867804399963532,22.372142299660226]]},"properties":{"objectid":15,"name":"Balir Char Khal"}},{"type":"Feature","id":17,"geometry":{"type":"LineString","coordinates":[[91.817184011208241,22.361314466097451],[91.8172898686813,22.361412364214942],[91.817452436798277,22.361503269726175],[91.817486463184622,22.361618649457046],[91.817584759537951,22.361761999193746],[91.81773220541541,22.36184591195649],[91.817841843897511,22.361873882866188],[91.817856967035311,22.36206268490578],[91.817838063786795,22.362174567505917],[91.818159419011707,22.362247990854726],[91.818287960742339,22.362275961683668],[91.818314364923481,22.362397717675378],[91.818362369993991,22.362538063421933],[91.818380952543947,22.362618260571871],[91.81853937403757,22.363132997487519],[91.81856300332278,22.363488091170684],[91.818622075637549,22.363761239605541],[91.818645704922801,22.364001610316691],[91.818645704922801,22.36431846085101],[91.818700643190624,22.364389750543459],[91.81889335248033,22.36446867392425],[91.819198933288831,22.364489041321445],[91.81921545151026,22.364646887095002],[91.819196180850795,22.364840376585203],[91.819220957284628,22.364883656665974],[91.819212698173914,22.364937120814119],[91.819216740592694,22.364928487730875]]},"properties":{"objectid":17,"name":"2 No Gate Khal"}},{"type":"Feature","id":18,"geometry":{"type":"LineString","coordinates":[[91.750531695004426,22.364170107659952],[91.752214266481033,22.364414623920119],[91.754810233260429,22.364592454186514],[91.756228400006222,22.364392395640056],[91.75735812669744,22.364125650187496],[91.759353175348991,22.364814741492442],[91.763030794578839,22.365681657432145],[91.763030794578839,22.365637200442254]]},"properties":{"objectid":18,"name":"Kattali Khal"}},{"type":"Feature","id":19,"geometry":{"type":"LineString","coordinates":[[91.750303345954137,22.371610995275354],[91.751993428244859,22.371923571148315],[91.753082593306019,22.37261818039422],[91.754622445840198,22.37261818039422],[91.755391922051317,22.372499429667535],[91.755776509689071,22.372499429667535],[91.756253398323963,22.372456753379716],[91.756422616668956,22.372485203962825],[91.756607218663234,22.372342948497124],[91.756668753260172,22.372200692886029],[91.75694565625156,22.372158015675954],[91.757130258245837,22.372243369252331],[91.75743792853568,22.372044210549092],[91.757591763231474,22.372143789936334],[91.757576379582247,22.372456753379716],[91.757837899822675,22.372826617982625],[91.758114802814077,22.372997324263135],[91.758607075098197,22.373139579060094],[91.759007046385179,22.373054226033226],[91.759253182078098,22.372997324263135],[91.759483935020071,22.373495216247132],[91.759760838011431,22.373779725508658],[91.759891272492382,22.373910108121095],[91.759975959369143,22.374085376045276],[91.759979991906491,22.374435911231522],[91.760036449225439,22.374670844123944],[91.76016952834658,22.374924422144474],[91.760217920590947,22.375166812907285],[91.760217920590947,22.375334621394057],[91.760242116713101,22.375476325553237],[91.760302607467722,22.375588197374579],[91.760443751663459,22.375655321254879],[91.760657484225774,22.375703798854349],[91.760842988128559,22.375763464016284],[91.761072851738419,22.375867876949791],[91.761270454151472,22.375998394667853],[91.761407565809918,22.376106537162677],[91.761800075690147,22.376261758951138],[91.762233275659497,22.376452944621342],[91.76265662919505,22.376616819149234],[91.763434419314123,22.376798900993325],[91.763788855897673,22.37701739839337],[91.76406452819711,22.377099334933767],[91.764487882630945,22.377081126633254],[91.764783245103089,22.377163063966819],[91.76492407488854,22.3770201512373],[91.76535428167135,22.377044710855749],[91.765797326277905,22.376980982599189],[91.766023771798089,22.376762484311282],[91.766975703029942,22.376510983832901],[91.76866788917502,22.376283380604374],[91.769652433743289,22.376311831235931],[91.770452375418927,22.376311831235931],[91.770713895659398,22.376283380604374],[91.771344618990071,22.375728597109916],[91.771729206627839,22.37547254263524],[91.772190712511744,22.375230713115002],[91.772682983897582,22.374747051983391],[91.773313708126537,22.374192263195678],[91.774082883402059,22.373694372874347],[91.774482854689055,22.373537893047235],[91.774682840332531,22.37333873619616],[91.774852058677553,22.373495216247132],[91.774990510622388,22.373751274359485],[91.775559700254419,22.373352961813634],[91.776298108231444,22.373168030334313],[91.777051900756007,22.373737049613396],[91.777436488393761,22.374178037663963],[91.777790308733017,22.374249164477273],[91.777928760677881,22.37410690998361],[91.778467183011415,22.374064234188676],[91.778851770649169,22.374007332831486],[91.779082523591157,22.374064234188676],[91.77911329088964,22.374334516771405],[91.779236358286937,22.37449099570291],[91.779282509234648,22.374718601862583],[91.779128673640543,22.374974657724351],[91.778867154298396,22.375259163961793],[91.778728702353561,22.375685921812206],[91.778528716710056,22.3759704265957],[91.778651785005678,22.376311831235931],[91.778928687997038,22.376610560024485],[91.779328659284062,22.376852387147093],[91.779559412226007,22.377065764208517],[91.779713246921787,22.377122664315333],[91.779990150811486,22.376909287341142],[91.780405504849426,22.376838161887278],[91.780636257791386,22.377065764208517],[91.780790092487152,22.37717956439888],[91.780990078130657,22.377122664315333],[91.781282364771286,22.376994638003943],[91.781277910025807,22.376984259597396]]},"properties":{"objectid":19,"name":"Kalir Chara Khal"}},{"type":"Feature","id":20,"geometry":{"type":"LineString","coordinates":[[91.834298854138467,22.355945569357562],[91.835461848139573,22.356442384125167],[91.836763292288907,22.356944319777469],[91.837250641805269,22.357154311973563],[91.837532640939273,22.357062271257075],[91.837604751402083,22.356578769666552],[91.837652824744509,22.355872966006601],[91.838980853636343,22.355700682647836],[91.839491634808596,22.355617319495007],[91.839613352038029,22.35558731519475],[91.839679512958682,22.355952990034339],[91.839983540580064,22.355885973798234],[91.8401536698168,22.355696580165958]]},"properties":{"objectid":20,"name":"Chatteshwari Khal Khal"}},{"type":"Feature","id":21,"geometry":{"type":"LineString","coordinates":[[91.846624666897952,22.330871178434709],[91.846438266476497,22.330901020204102],[91.84628771242815,22.330915941501882],[91.846176589929172,22.33098888856858],[91.846129989823808,22.33116296739723],[91.846095935589702,22.331293940809303],[91.846058297077619,22.331400045635629],[91.846031412297791,22.331444808533075],[91.845909535168246,22.331491229146575],[91.845744307139711,22.331515061407956],[91.845702300120408,22.331590184398358],[91.845740287178842,22.331681103545645],[91.845754970142167,22.33178975491095],[91.845741021102441,22.331909950442334],[91.845709453405036,22.332015884457476],[91.845654393864635,22.332078358624404],[91.845558956848834,22.332110953866945],[91.845455857203703,22.332118635065552],[91.845402648192788,22.332167853224838],[91.845296230170959,22.332338822044935],[91.845206614238222,22.332504608935427],[91.845072191237435,22.332696300872481],[91.844904162261855,22.33287244992043],[91.844696927214002,22.333012332658335],[91.84450369330817,22.333095225727945],[91.844341265328381,22.333193662170814],[91.844114426346096,22.333315411165557],[91.843898789355407,22.333403485741847],[91.843588561561958,22.3335206486483],[91.843161241964424,22.333688636097058],[91.843096101529937,22.333720810513089]]},"properties":{"objectid":21,"name":"Moriyom Bibi Chaktai Link Khal"}},{"type":"Feature","id":22,"geometry":{"type":"LineString","coordinates":[[91.853055613490483,22.402550310952552],[91.853130172760743,22.402501527112257],[91.853237998442609,22.402515313725079],[91.853316000057049,22.402530160908952],[91.85333320548969,22.402510011692936],[91.85333320548969,22.402475014455312],[91.853358441860976,22.402412444797417],[91.85339285362457,22.402351995428404],[91.853473149536242,22.402303212348997],[91.853524767630759,22.402301091200734],[91.853579827171174,22.402380629255916],[91.853665857927624,22.402416687090536],[91.853892979879191,22.40246122783849],[91.854020305290959,22.402475014455312],[91.85412354237836,22.402487740498042],[91.85410977749325,22.402549250380297],[91.854151072148554,22.402592730513831],[91.854215307979558,22.402599093945202],[91.854349516283023,22.402625606578496],[91.854607608552371,22.402725294466201],[91.854670698133077,22.402795287145565],[91.854678727275072,22.40286952289949],[91.854722316227594,22.402956483783083],[91.854812935578536,22.40304980802302],[91.85483014190946,22.403117680233667],[91.854828994760879,22.403185552411159],[91.854823259017778,22.403278876497275],[91.85485423023384,22.403329780366839],[91.854884054301237,22.403396591874991],[91.854900113483581,22.403422043790538],[91.854960908767083,22.403457040789696],[91.855022851199166,22.403451737962946],[91.855129109320885,22.403611831749394],[91.855286141120757,22.403769367376608],[91.855406421045714,22.403933079330727],[91.855523360136146,22.404028836308527],[91.855650321730195,22.404201815604193],[91.855787307624496,22.404374794684575],[91.855927633455025,22.404544684064867],[91.856084665254883,22.404628084350879],[91.85614814650107,22.404726929500175],[91.85617487497403,22.404869018967617],[91.856154829068473,22.40501110828982],[91.856091347822286,22.405199530393169],[91.856031208308963,22.40531690779077],[91.855914269218545,22.405514597039172],[91.855870834776255,22.405696841202577],[91.855874175610793,22.405808040097249],[91.855907586651142,22.405937773135932],[91.855940997691519,22.40605515074051],[91.856021184907036,22.406144727357766],[91.856027866576099,22.406292993437223]]},"properties":{"objectid":22,"name":"Jugir Khola Khal"}},{"type":"Feature","id":23,"geometry":{"type":"LineString","coordinates":[[91.846976357331684,22.33370688579965],[91.847396952140954,22.333954459319088],[91.847702840173298,22.334390660043482],[91.848467558008394,22.334991906309018],[91.849181295552768,22.335404524795294],[91.849640126253803,22.335640307070236],[91.850035230468592,22.335982189455986],[91.850659750932181,22.33640659401016],[91.851297015794756,22.336713107607135],[91.85207447982539,22.337019621361232],[91.852444093445669,22.337267188999697],[91.852788216471438,22.337573700704979],[91.853055867713735,22.337821267359722]]},"properties":{"objectid":23,"name":"Rajakhali - Chaktai Diversion"}}]}